HAWK-2B                 
1 47508U 21006CZ  26068.67629241  .00009474  00000+0  29651-3 0  9991
2 47508  97.2334 114.1140 0007102 185.9063 174.2098 15.33301353284246
STARLINK-35509          
1 66199U 25243Y   26068.80712287  .00027681  00000+0  94307-3 0  9993
2 66199  53.1599 244.5686 0000963  64.9004 295.2097 15.30205868 20678
